IRIDIUM 155             
1 43573U 18061E   22108.57600707  .00000208  00000+0  67366-4 0  9994
2 43573  86.3965 332.1850 0001821  83.6278 276.5125 14.34216153195406
IRIDIUM 154             
1 43574U 18061F   22108.55696897  .00000169  00000+0  53181-4 0  9994
2 43574  86.3969 332.2536 0002403  85.0293 275.1177 14.34215331195457
IRIDIUM 163             
1 43575U 18061G   22108.53794427  .00000213  00000+0  69157-4 0  9991
2 43575  86.3966 332.2235 0002261  97.8847 262.2605 14.34218030195428
IRIDIUM 156             
1 43576U 18061H   22108.37303379  .00000155  00000+0  48359-4 0  9992
2 43576  86.3966 332.2978 0001922  92.7136 267.4280 14.34215258195392
IRIDIUM 164             
1 43577U 18061J   22108.56330953  .00000217  00000+0  70339-4 0  9994
2 43577  86.3967 332.2354 0002387  88.9801 271.1669 14.34215746195467
IRIDIUM 159             
1 43578U 18061K   22108.53160342  .00000212  00000+0  68487-4 0  9991
2 43578  86.3966 332.2174 0002322  86.7071 273.4391 14.34217973195428
IRIDIUM 180             
1 43922U 19002A   22108.53109298  .00000079  00000+0  21134-4 0  9992
2 43922  86.3929 269.0398 0002855  95.6214 264.5307 14.34217174171036
IRIDIUM 176             
1 43923U 19002B   22108.51730968  .00000272  00000+0  39261-4 0  9990
2 43923  86.6064 269.0795 0002257  89.9067 270.2409 14.72267189175516
IRIDIUM 168             
1 43924U 19002C   22108.52474884  .00000096  00000+0  27329-4 0  9990
2 43924  86.3932 269.0769 0002393  90.2750 269.8720 14.34216161171017
IRIDIUM 173             
1 43925U 19002D   22108.51206205  .00000100  00000+0  28730-4 0  9993
2 43925  86.3928 269.0329 0002330  92.1559 267.9903 14.34216410170999
IRIDIUM 169             
1 43926U 19002E   22108.55430125  .00000056  00000+0  11690-4 0  9995
2 43926  86.4176 300.6445 0003361 334.1867  25.9163 14.38613464171606
IRIDIUM 172             
1 43927U 19002F   22108.50571857  .00000100  00000+0  28721-4 0  9992
2 43927  86.3929 269.0389 0002428  92.4683 267.6791 14.34217044171006
IRIDIUM 175             
1 43928U 19002G   22108.51118667  .00000579  00000+0  87854-4 0  9992
2 43928  86.6067 268.9108 0002630  93.4658 266.6860 14.72246905175503
IRIDIUM 171             
1 43929U 19002H   22108.48669414  .00000092  00000+0  25798-4 0  9999
2 43929  86.3938 269.1846 0002374  89.4241 270.7227 14.34215939170990
IRIDIUM 170             
1 43930U 19002J   22108.52355004  .00000749  00000+0  11493-3 0  9998
2 43930  86.6064 269.0826 0002366  85.9189 274.2298 14.72259542175526
IRIDIUM 167             
1 43931U 19002K   22108.55011542  .00000092  00000+0  25723-4 0  9991
2 43931  86.3930 269.0295 0002623  91.6243 268.5253 14.34216349171009
